[{"OBJECT_NAME":"STARLINK-36357","OBJECT_ID":"2026-038C","EPOCH":"2026-03-09T20:00:00.999360","MEAN_MOTION":15.87478462,"ECCENTRICITY":0.0001509,"INCLINATION":97.2737,"RA_OF_ASC_NODE":79.1205,"ARG_OF_PERICENTER":77.0984,"MEAN_ANOMALY":67.8746,"EPHEMERIS_TYPE":0,"CLASSIFICATION_TYPE":"U","NORAD_CAT_ID":67963,"ELEMENT_SET_NO":999,"REV_AT_EPOCH":322,"BSTAR":-0.0067689,"MEAN_MOTION_DOT":-0.01566031,"MEAN_MOTION_DDOT":0},{"OBJECT_NAME":"STARLINK-36349","OBJECT_ID":"2026-038D","EPOCH":"2026-03-09T20:00:00.999360","MEAN_MOTION":15.87342494,"ECCENTRICITY":0.0001634,"INCLINATION":97.2736,"RA_OF_ASC_NODE":79.1181,"ARG_OF_PERICENTER":74.663,"MEAN_ANOMALY":65.9555,"EPHEMERIS_TYPE":0,"CLASSIFICATION_TYPE":"U","NORAD_CAT_ID":67964,"ELEMENT_SET_NO":999,"REV_AT_EPOCH":322,"BSTAR":-0.006826,"MEAN_MOTION_DOT":-0.01568441,"MEAN_MOTION_DDOT":0},{"OBJECT_NAME":"STARLINK-36806","OBJECT_ID":"2026-038E","EPOCH":"2026-03-09T20:00:00.999360","MEAN_MOTION":15.87642165,"ECCENTRICITY":0.0001528,"INCLINATION":97.2729,"RA_OF_ASC_NODE":79.1222,"ARG_OF_PERICENTER":80.7323,"MEAN_ANOMALY":69.3049,"EPHEMERIS_TYPE":0,"CLASSIFICATION_TYPE":"U","NORAD_CAT_ID":67965,"ELEMENT_SET_NO":999,"REV_AT_EPOCH":322,"BSTAR":-0.0067257,"MEAN_MOTION_DOT":-0.01568411,"MEAN_MOTION_DDOT":0},{"OBJECT_NAME":"STARLINK-36820","OBJECT_ID":"2026-038F","EPOCH":"2026-03-09T20:00:00.999360","MEAN_MOTION":15.87771464,"ECCENTRICITY":0.0001514,"INCLINATION":97.2727,"RA_OF_ASC_NODE":79.1242,"ARG_OF_PERICENTER":82.6826,"MEAN_ANOMALY":71.583,"EPHEMERIS_TYPE":0,"CLASSIFICATION_TYPE":"U","NORAD_CAT_ID":67966,"ELEMENT_SET_NO":999,"REV_AT_EPOCH":322,"BSTAR":-0.0066379,"MEAN_MOTION_DOT":-0.01559156,"MEAN_MOTION_DDOT":0},{"OBJECT_NAME":"STARLINK-36819","OBJECT_ID":"2026-038G","EPOCH":"2026-03-09T20:00:00.999360","MEAN_MOTION":15.8791742,"ECCENTRICITY":0.0001502,"INCLINATION":97.2726,"RA_OF_ASC_NODE":79.126,"ARG_OF_PERICENTER":81.9014,"MEAN_ANOMALY":76.9286,"EPHEMERIS_TYPE":0,"CLASSIFICATION_TYPE":"U","NORAD_CAT_ID":67967,"ELEMENT_SET_NO":999,"REV_AT_EPOCH":322,"BSTAR":-0.0066095,"MEAN_MOTION_DOT":-0.01563234,"MEAN_MOTION_DDOT":0},{"OBJECT_NAME":"STARLINK-36812","OBJECT_ID":"2026-038H","EPOCH":"2026-03-09T20:00:00.999360","MEAN_MOTION":15.88038067,"ECCENTRICITY":0.0001497,"INCLINATION":97.272,"RA_OF_ASC_NODE":79.1271,"ARG_OF_PERICENTER":82.6543,"MEAN_ANOMALY":80.0535,"EPHEMERIS_TYPE":0,"CLASSIFICATION_TYPE":"U","NORAD_CAT_ID":67968,"ELEMENT_SET_NO":999,"REV_AT_EPOCH":322,"BSTAR":-0.0065674,"MEAN_MOTION_DOT":-0.01530005,"MEAN_MOTION_DDOT":0},{"OBJECT_NAME":"STARLINK-36709","OBJECT_ID":"2026-038J","EPOCH":"2026-03-09T20:00:00.999360","MEAN_MOTION":15.88331982,"ECCENTRICITY":0.0001588,"INCLINATION":97.2721,"RA_OF_ASC_NODE":79.1315,"ARG_OF_PERICENTER":88.853,"MEAN_ANOMALY":83.2005,"EPHEMERIS_TYPE":0,"CLASSIFICATION_TYPE":"U","NORAD_CAT_ID":67969,"ELEMENT_SET_NO":999,"REV_AT_EPOCH":322,"BSTAR":-0.006423,"MEAN_MOTION_DOT":-0.01520252,"MEAN_MOTION_DDOT":0},{"OBJECT_NAME":"STARLINK-36319","OBJECT_ID":"2026-038K","EPOCH":"2026-03-09T20:00:00.999360","MEAN_MOTION":15.88179564,"ECCENTRICITY":0.0001554,"INCLINATION":97.2719,"RA_OF_ASC_NODE":79.129,"ARG_OF_PERICENTER":86.3834,"MEAN_ANOMALY":80.9588,"EPHEMERIS_TYPE":0,"CLASSIFICATION_TYPE":"U","NORAD_CAT_ID":67970,"ELEMENT_SET_NO":999,"REV_AT_EPOCH":319,"BSTAR":-0.006456,"MEAN_MOTION_DOT":-0.01516952,"MEAN_MOTION_DDOT":0},{"OBJECT_NAME":"STARLINK-36710","OBJECT_ID":"2026-038L","EPOCH":"2026-03-09T20:00:00.999360","MEAN_MOTION":15.88514012,"ECCENTRICITY":0.0001534,"INCLINATION":97.2713,"RA_OF_ASC_NODE":79.1337,"ARG_OF_PERICENTER":84.8114,"MEAN_ANOMALY":92.9897,"EPHEMERIS_TYPE":0,"CLASSIFICATION_TYPE":"U","NORAD_CAT_ID":67971,"ELEMENT_SET_NO":999,"REV_AT_EPOCH":322,"BSTAR":-0.0063362,"MEAN_MOTION_DOT":-0.01514388,"MEAN_MOTION_DDOT":0},{"OBJECT_NAME":"STARLINK-36894","OBJECT_ID":"2026-038M","EPOCH":"2026-03-09T20:00:00.999360","MEAN_MOTION":15.88669218,"ECCENTRICITY":0.0001511,"INCLINATION":97.2707,"RA_OF_ASC_NODE":79.1355,"ARG_OF_PERICENTER":86.1966,"MEAN_ANOMALY":96.3193,"EPHEMERIS_TYPE":0,"CLASSIFICATION_TYPE":"U","NORAD_CAT_ID":67972,"ELEMENT_SET_NO":999,"REV_AT_EPOCH":322,"BSTAR":-0.0063149,"MEAN_MOTION_DOT":-0.01520147,"MEAN_MOTION_DDOT":0},{"OBJECT_NAME":"STARLINK-36900","OBJECT_ID":"2026-038N","EPOCH":"2026-03-09T20:00:00.999360","MEAN_MOTION":15.88965205,"ECCENTRICITY":0.0001564,"INCLINATION":97.2706,"RA_OF_ASC_NODE":79.1394,"ARG_OF_PERICENTER":86.5979,"MEAN_ANOMALY":105.3691,"EPHEMERIS_TYPE":0,"CLASSIFICATION_TYPE":"U","NORAD_CAT_ID":67973,"ELEMENT_SET_NO":999,"REV_AT_EPOCH":322,"BSTAR":-0.006161,"MEAN_MOTION_DOT":-0.01507505,"MEAN_MOTION_DDOT":0},{"OBJECT_NAME":"STARLINK-36901","OBJECT_ID":"2026-038P","EPOCH":"2026-03-09T20:00:00.999360","MEAN_MOTION":15.88810017,"ECCENTRICITY":0.000157,"INCLINATION":97.2706,"RA_OF_ASC_NODE":79.1371,"ARG_OF_PERICENTER":87.2373,"MEAN_ANOMALY":99.7537,"EPHEMERIS_TYPE":0,"CLASSIFICATION_TYPE":"U","NORAD_CAT_ID":67974,"ELEMENT_SET_NO":999,"REV_AT_EPOCH":322,"BSTAR":-0.0062426,"MEAN_MOTION_DOT":-0.01514446,"MEAN_MOTION_DDOT":0},{"OBJECT_NAME":"STARLINK-36883","OBJECT_ID":"2026-038Q","EPOCH":"2026-03-09T20:00:00.999360","MEAN_MOTION":15.89587786,"ECCENTRICITY":0.000154,"INCLINATION":97.2693,"RA_OF_ASC_NODE":79.1474,"ARG_OF_PERICENTER":90.1105,"MEAN_ANOMALY":121.0629,"EPHEMERIS_TYPE":0,"CLASSIFICATION_TYPE":"U","NORAD_CAT_ID":67975,"ELEMENT_SET_NO":999,"REV_AT_EPOCH":322,"BSTAR":-0.0059737,"MEAN_MOTION_DOT":-0.01726575,"MEAN_MOTION_DDOT":0.00080855},{"OBJECT_NAME":"STARLINK-36880","OBJECT_ID":"2026-038R","EPOCH":"2026-03-09T20:00:00.999360","MEAN_MOTION":15.8911883,"ECCENTRICITY":0.0001544,"INCLINATION":97.2702,"RA_OF_ASC_NODE":79.1413,"ARG_OF_PERICENTER":87.78,"MEAN_ANOMALY":109.024,"EPHEMERIS_TYPE":0,"CLASSIFICATION_TYPE":"U","NORAD_CAT_ID":67976,"ELEMENT_SET_NO":999,"REV_AT_EPOCH":322,"BSTAR":-0.0061104,"MEAN_MOTION_DOT":-0.01506854,"MEAN_MOTION_DDOT":0},{"OBJECT_NAME":"STARLINK-36904","OBJECT_ID":"2026-038S","EPOCH":"2026-03-09T20:00:00.999360","MEAN_MOTION":15.89426472,"ECCENTRICITY":0.0001533,"INCLINATION":97.2695,"RA_OF_ASC_NODE":79.1447,"ARG_OF_PERICENTER":89.6723,"MEAN_ANOMALY":116.6854,"EPHEMERIS_TYPE":0,"CLASSIFICATION_TYPE":"U","NORAD_CAT_ID":67977,"ELEMENT_SET_NO":999,"REV_AT_EPOCH":322,"BSTAR":-0.0059936,"MEAN_MOTION_DOT":-0.01718531,"MEAN_MOTION_DDOT":0.0008003},{"OBJECT_NAME":"STARLINK-36364","OBJECT_ID":"2026-038T","EPOCH":"2026-03-09T20:00:00.999360","MEAN_MOTION":15.89955865,"ECCENTRICITY":0.0001478,"INCLINATION":97.2684,"RA_OF_ASC_NODE":79.1519,"ARG_OF_PERICENTER":89.5321,"MEAN_ANOMALY":132.9953,"EPHEMERIS_TYPE":0,"CLASSIFICATION_TYPE":"U","NORAD_CAT_ID":67978,"ELEMENT_SET_NO":999,"REV_AT_EPOCH":322,"BSTAR":-0.0058327,"MEAN_MOTION_DOT":-0.01717246,"MEAN_MOTION_DDOT":0.00080333}]
