STARLINK-36357          
1 67963U 26038C   26068.83334490 -.01566031  00000+0 -67689-2 0  9997
2 67963  97.2737  79.1205 0001509  77.0984  67.8746 15.87478462  3229
STARLINK-36349          
1 67964U 26038D   26068.83334490 -.01568441  00000+0 -68260-2 0  9991
2 67964  97.2736  79.1181 0001634  74.6630  65.9555 15.87342494  3224
STARLINK-36806          
1 67965U 26038E   26068.83334490 -.01568411  00000+0 -67257-2 0  9994
2 67965  97.2729  79.1222 0001528  80.7323  69.3049 15.87642165  3226
STARLINK-36820          
1 67966U 26038F   26068.83334490 -.01559156  00000+0 -66379-2 0  9995
2 67966  97.2727  79.1242 0001514  82.6826  71.5830 15.87771464  3229
STARLINK-36819          
1 67967U 26038G   26068.83334490 -.01563234  00000+0 -66095-2 0  9993
2 67967  97.2726  79.1260 0001502  81.9014  76.9286 15.87917420  3225
STARLINK-36812          
1 67968U 26038H   26068.83334490 -.01530005  00000+0 -65674-2 0  9996
2 67968  97.2720  79.1271 0001497  82.6543  80.0535 15.88038067  3225
STARLINK-36709          
1 67969U 26038J   26068.83334490 -.01520252  00000+0 -64230-2 0  9997
2 67969  97.2721  79.1315 0001588  88.8530  83.2005 15.88331982  3220
STARLINK-36319          
1 67970U 26038K   26068.83334490 -.01516952  00000+0 -64560-2 0  9997
2 67970  97.2719  79.1290 0001554  86.3834  80.9588 15.88179564  3196
STARLINK-36710          
1 67971U 26038L   26068.83334490 -.01514388  00000+0 -63362-2 0  9998
2 67971  97.2713  79.1337 0001534  84.8114  92.9897 15.88514012  3226
STARLINK-36894          
1 67972U 26038M   26068.83334490 -.01520147  00000+0 -63149-2 0  9992
2 67972  97.2707  79.1355 0001511  86.1966  96.3193 15.88669218  3221
STARLINK-36900          
1 67973U 26038N   26068.83334490 -.01507505  00000+0 -61610-2 0  9997
2 67973  97.2706  79.1394 0001564  86.5979 105.3691 15.88965205  3229
STARLINK-36901          
1 67974U 26038P   26068.83334490 -.01514446  00000+0 -62426-2 0  9996
2 67974  97.2706  79.1371 0001570  87.2373  99.7537 15.88810017  3223
STARLINK-36883          
1 67975U 26038Q   26068.83334490 -.01726575  80855-3 -59737-2 0  9996
2 67975  97.2693  79.1474 0001540  90.1105 121.0629 15.89587786  3222
STARLINK-36880          
1 67976U 26038R   26068.83334490 -.01506854  00000+0 -61104-2 0  9994
2 67976  97.2702  79.1413 0001544  87.7800 109.0240 15.89118830  3220
STARLINK-36904          
1 67977U 26038S   26068.83334490 -.01718531  80030-3 -59936-2 0  9997
2 67977  97.2695  79.1447 0001533  89.6723 116.6854 15.89426472  3221
STARLINK-36364          
1 67978U 26038T   26068.83334490 -.01717246  80333-3 -58327-2 0  9999
2 67978  97.2684  79.1519 0001478  89.5321 132.9953 15.89955865  3225
